EARTHCARE               
1 59908U 24101A   24188.92243063  .00013505  00000+0  20519-3 0  9994
2 59908  96.9826 316.2096 0004410  51.6346 308.5304 15.54667860  6056
